{
  "norad_id": 66916,
  "name": "HULIANWANG DIGUI-106",
  "history": [
    {
      "epoch": "2026-03-26T09:28:34.779936",
      "apogee_km": 1152.1206217813706,
      "perigee_km": 1143.6111208548282,
      "latitude_deg": -49.188865494373225,
      "longitude_deg": -2.4946889597922564,
      "semi_major_axis_km": 7526.002871318099,
      "eccentricity": 0.00056534,
      "inclination_deg": 50.0297,
      "raan_deg": 83.0708,
      "arg_perigee_deg": 210.3265,
      "mean_anomaly_deg": 149.7281,
      "mean_motion_rev_day": 13.29707727
    }
  ]
}